NORAD_CAT_ID,OBJECT_NAME,OBJECT_TYPE,EPOCH,MEAN_MOTION,ECCENTRICITY,INCLINATION,RA_OF_ASC_NODE,ARG_OF_PERICENTER,MEAN_ANOMALY,BSTAR,MEAN_MOTION_DOT,MEAN_MOTION_DDOT,TLE_LINE0,TLE_LINE1,TLE_LINE2,SEMIMAJOR_AXIS,PERIOD,APOGEE,PERIGEE,DECAYED
55423.0,STARLINK-5068,PAYLOAD,2024-01-19 22:58:18,14.98338163,0.0002771,69.9985,250.5224,260.5313,99.5533,0.00012149,1.357e-05,0.0,0 STARLINK-5068,1 55423U 23014AJ  24019.95715677  .00001357  00000-0  12149-3 0  9998,2 55423  69.9985 250.5224 0002771 260.5313  99.5533 14.98338163 54766,6950.168,96.106,573.959,570.107,0.0
55423.0,STARLINK-5068,PAYLOAD,2024-01-20 00:34:26,14.98339199,0.0002761,69.9986,250.3543,260.013,100.0718,0.00013035,1.463e-05,0.0,0 STARLINK-5068,1 55423U 23014AJ  24020.02391546  .00001463  00000-0  13035-3 0  9996,2 55423  69.9986 250.3543 0002761 260.0130 100.0718 14.98339199 53830,6950.164,96.106,573.948,570.111,0.0
55423.0,STARLINK-5068,PAYLOAD,2024-01-20 14:59:39,14.98322859,0.000223,70.001,248.8415,238.6696,121.4245,0.00011494,1.279e-05,0.0,0 STARLINK-5068,1 55423U 23014AJ  24020.62476423  .00001279  00000-0  11494-3 0  9992,2 55423  70.0010 248.8415 0002230 238.6696 121.4245 14.98322859 54861,6950.215,96.107,573.63,570.53,0.0
55423.0,STARLINK-5068,PAYLOAD,2024-01-20 19:48:04,14.98325495,0.0002807,69.9999,248.3385,255.8031,104.2816,-0.00010743,-1.374e-05,0.0,0 STARLINK-5068,1 55423U 23014AJ  24020.82505035 -.00001374  00000-0 -10743-3 0  9990,2 55423  69.9999 248.3385 0002807 255.8031 104.2816 14.98325495 53950,6950.207,96.107,574.023,570.121,0.0
55423.0,STARLINK-5068,PAYLOAD,2024-01-20 23:00:20,14.98324778,0.0003273,69.9976,247.9965,269.1573,90.9211,-0.00010268,-1.318e-05,0.0,0 STARLINK-5068,1 55423U 23014AJ  24020.95857100 -.00001318  00000-0 -10268-3 0  9997,2 55423  69.9976 247.9965 0003273 269.1573  90.9211 14.98324778 54911,6950.209,96.107,574.349,569.799,0.0
55423.0,STARLINK-5068,PAYLOAD,2024-01-21 00:36:28,14.98325275,0.0003265,69.9976,247.8286,268.3143,91.7642,-0.00010854,-1.388e-05,0.0,0 STARLINK-5068,1 55423U 23014AJ  24021.02533052 -.00001388  00000-0 -10854-3 0  9991,2 55423  69.9976 247.8286 0003265 268.3143  91.7642 14.98325275 54922,6950.208,96.107,574.342,569.803,0.0
55423.0,STARLINK-5068,PAYLOAD,2024-01-21 19:50:04,14.98341754,0.000363,69.9974,245.8083,275.7743,84.3002,-4.4921e-07,-9.8e-07,0.0,0 STARLINK-5068,1 55423U 23014AJ  24021.82643572 -.00000098  00000-0 -44921-6 0  9990,2 55423  69.9974 245.8083 0003630 275.7743  84.3002 14.98341754 54105,6950.157,96.106,574.544,569.499,0.0
55423.0,STARLINK-5068,PAYLOAD,2024-01-21 21:26:11,14.98343992,0.0003443,69.9974,245.6395,271.7917,88.2848,3.9903e-06,-4.5e-07,0.0,0 STARLINK-5068,1 55423U 23014AJ  24021.89319355 -.00000045  00000-0  39903-5 0  9990,2 55423  69.9974 245.6395 0003443 271.7917  88.2848 14.98343992 55052,6950.15,96.106,574.408,569.622,0.0
55423.0,STARLINK-5068,PAYLOAD,2024-01-22 00:38:27,14.98349141,0.0003505,69.9972,245.3031,272.2428,87.833,1.558e-05,9.3e-07,0.0,0 STARLINK-5068,1 55423U 23014AJ  24022.02670847  .00000093  00000-0  15580-4 0  9998,2 55423  69.9972 245.3031 0003505 272.2428  87.8330 14.98349141 54137,6950.134,96.106,574.435,569.563,0.0
55423.0,STARLINK-5068,PAYLOAD,2024-01-22 19:52:06,14.98318865,0.000308,69.9985,243.2856,264.0511,96.0297,2.1981e-05,1.69e-06,0.0,0 STARLINK-5068,1 55423U 23014AJ  24022.82784736  .00000169  00000-0  21981-4 0  9995,2 55423  69.9985 243.2856 0003080 264.0511  96.0297 14.98318865 54259,6950.227,96.108,574.233,569.952,0.0
55423.0,STARLINK-5068,PAYLOAD,2024-01-22 21:28:14,14.9831937,0.0003061,69.9984,243.1168,263.5594,96.5217,2.7368e-05,2.33e-06,0.0,0 STARLINK-5068,1 55423U 23014AJ  24022.89460718  .00000233  00000-0  27368-4 0  9990,2 55423  69.9984 243.1168 0003061 263.5594  96.5217 14.98319370 55202,6950.226,96.108,574.218,569.963,0.0
55423.0,STARLINK-5068,PAYLOAD,2024-01-23 00:40:30,14.98317925,0.0003085,69.9983,242.7798,264.4222,95.6586,7.0675e-06,-9e-08,0.0,0 STARLINK-5068,1 55423U 23014AJ  24023.02812950 -.00000009  00000-0  70675-5 0  9997,2 55423  69.9983 242.7798 0003085 264.4222  95.6586 14.98317925 55224,6950.23,96.108,574.239,569.951,0.0
55423.0,STARLINK-5068,PAYLOAD,2024-01-23 16:41:50,14.98334577,0.0003003,69.9982,241.0969,264.755,95.3266,-6.0721e-05,-8.18e-06,0.0,0 STARLINK-5068,1 55423U 23014AJ  24023.69572180 -.00000818  00000-0 -60721-4 0  9997,2 55423  69.9982 241.0969 0003003 264.7550  95.3266 14.98334577 54382,6950.179,96.107,574.131,569.957,0.0
55423.0,STARLINK-5068,PAYLOAD,2024-01-23 21:30:14,14.98334513,0.0002993,69.9983,240.5917,265.2876,94.7941,-5.416e-05,-7.39e-06,0.0,0 STARLINK-5068,1 55423U 23014AJ  24023.89600116 -.00000739  00000-0 -54160-4 0  9992,2 55423  69.9983 240.5917 0002993 265.2876  94.7941 14.98334513 55355,6950.179,96.107,574.124,569.964,0.0
55423.0,STARLINK-5068,PAYLOAD,2024-01-24 00:42:30,14.98334604,0.0002988,69.9983,240.255,265.5456,94.5361,-4.9111e-05,-6.79e-06,0.0,0 STARLINK-5068,1 55423U 23014AJ  24024.02952064 -.00000679  00000-0 -49111-4 0  9993,2 55423  69.9983 240.2550 0002988 265.5456  94.5361 14.98334604 55373,6950.179,96.107,574.12,569.967,0.0
55423.0,STARLINK-5068,PAYLOAD,2024-01-24 19:56:07,14.98324947,0.0003046,69.9982,238.2341,270.8283,89.2527,7.9214e-05,8.52e-06,0.0,0 STARLINK-5068,1 55423U 23014AJ  24024.83064375  .00000852  00000-0  79214-4 0  9999,2 55423  69.9982 238.2341 0003046 270.8283  89.2527 14.98324947 54553,6950.209,96.107,574.191,569.956,0.0
55423.0,STARLINK-5068,PAYLOAD,2024-01-24 21:32:15,14.98324458,0.0003069,69.9982,238.0658,271.9308,88.15,7.067e-05,7.5e-06,0.0,0 STARLINK-5068,1 55423U 23014AJ  24024.89740455  .00000750  00000-0  70670-4 0  9999,2 55423  69.9982 238.0658 0003069 271.9308  88.1500 14.98324458 55509,6950.21,96.107,574.208,569.942,0.0
55423.0,STARLINK-5068,PAYLOAD,2024-01-24 23:08:23,14.98324969,0.0003062,69.9982,237.8976,271.6553,88.4255,7.431e-05,7.94e-06,0.0,0 STARLINK-5068,1 55423U 23014AJ  24024.96416429  .00000794  00000-0  74310-4 0  9991,2 55423  69.9982 237.8976 0003062 271.6553  88.4255 14.98324969 55519,6950.208,96.107,574.202,569.945,0.0
55423.0,STARLINK-5068,PAYLOAD,2024-01-25 19:58:08,14.98330044,0.0002992,69.9988,235.7097,268.936,91.1456,-1.0916e-05,-2.23e-06,0.0,0 STARLINK-5068,1 55423U 23014AJ  24025.83204398 -.00000223  00000-0 -10916-4 0  9999,2 55423  69.9988 235.7097 0002992 268.9360  91.1456 14.98330044 54707,6950.193,96.107,574.137,569.978,0.0
55423.0,STARLINK-5068,PAYLOAD,2024-01-25 21:34:16,14.9832982,0.0002989,69.9988,235.5414,268.6249,91.4568,-1.3015e-05,-2.48e-06,0.0,0 STARLINK-5068,1 55423U 23014AJ  24025.89880413 -.00000248  00000-0 -13015-4 0  9993,2 55423  69.9988 235.5414 0002989 268.6249  91.4568 14.98329820 55659,6950.193,96.107,574.136,569.981,0.0
55423.0,STARLINK-5068,PAYLOAD,2024-01-25 23:10:24,14.98330421,0.0002986,69.9988,235.3732,268.6582,91.4235,-6.4375e-06,-1.7e-06,0.0,0 STARLINK-5068,1 55423U 23014AJ  24025.96556353 -.00000170  00000-0 -64375-5 0  9994,2 55423  69.9988 235.3732 0002986 268.6582  91.4235 14.98330421 55668,6950.192,96.107,574.132,569.981,0.0
55423.0,STARLINK-5068,PAYLOAD,2024-01-26 23:12:26,14.98325567,0.0002919,69.9993,232.8482,264.24,95.8426,-2.1565e-05,-3.5e-06,0.0,0 STARLINK-5068,1 55423U 23014AJ  24026.96696777 -.00000350  00000-0 -21565-4 0  9993,2 55423  69.9993 232.8482 0002919 264.2400  95.8426 14.98325567 54872,6950.207,96.107,574.1,570.043,0.0
55423.0,STARLINK-5068,PAYLOAD,2024-01-27 13:37:38,14.98330517,0.0003092,69.999,231.3325,272.0683,88.0122,1.3582e-05,6.9e-07,0.0,0 STARLINK-5068,1 55423U 23014AJ  24027.56780435  .00000069  00000-0  13582-4 0  9990,2 55423  69.9990 231.3325 0003092 272.0683  88.0122 14.98330517 55905,6950.191,96.107,574.205,569.907,0.0
55423.0,STARLINK-5068,PAYLOAD,2024-01-27 21:38:18,14.98330776,0.0003084,69.9991,230.491,270.7755,89.3051,1.4957e-05,8.5e-07,0.0,0 STARLINK-5068,1 55423U 23014AJ  24027.90160385  .00000085  00000-0  14957-4 0  9999,2 55423  69.9991 230.4910 0003084 270.7755  89.3051 14.98330776 55959,6950.19,96.107,574.199,569.912,0.0
55423.0,STARLINK-5068,PAYLOAD,2024-01-27 23:14:26,14.98331449,0.000307,69.9992,230.323,270.4467,89.634,2.2044e-05,1.7e-06,0.0,0 STARLINK-5068,1 55423U 23014AJ  24027.96836315  .00000170  00000-0  22044-4 0  9999,2 55423  69.9992 230.3230 0003070 270.4467  89.6340 14.98331449 55026,6950.188,96.107,574.187,569.92,0.0
55423.0,STARLINK-5068,PAYLOAD,2024-01-28 13:39:39,14.98330438,0.0003122,69.9991,228.8083,270.9414,89.1387,4.1465e-05,4.02e-06,0.0,0 STARLINK-5068,1 55423U 23014AJ  24028.56920289  .00000402  00000-0  41465-4 0  9996,2 55423  69.9991 228.8083 0003122 270.9414  89.1387 14.98330438 56055,6950.192,96.107,574.226,569.887,0.0
55423.0,STARLINK-5068,PAYLOAD,2024-01-28 21:40:19,14.98331434,0.0003109,69.9992,227.9667,271.1789,88.9014,5.0014e-05,5.04e-06,0.0,0 STARLINK-5068,1 55423U 23014AJ  24028.90300171  .00000504  00000-0  50014-4 0  9999,2 55423  69.9992 227.9667 0003109 271.1789  88.9014 14.98331434 56104,6950.188,96.107,574.214,569.893,0.0
55423.0,STARLINK-5068,PAYLOAD,2024-01-28 23:16:27,14.98332096,0.0003101,69.9992,227.7985,270.7022,89.3781,5.556e-05,5.7e-06,0.0,0 STARLINK-5068,1 55423U 23014AJ  24028.96976101  .00000570  00000-0  55560-4 0  9991,2 55423  69.9992 227.7985 0003101 270.7022  89.3781 14.98332096 55179,6950.186,96.107,574.207,569.896,0.0
55423.0,STARLINK-5068,PAYLOAD,2024-01-29 12:05:31,14.98331768,0.0002998,69.9996,226.4523,270.2642,89.8174,-6.4905e-07,-1.01e-06,0.0,0 STARLINK-5068,1 55423U 23014AJ  24029.50384219 -.00000101  00000-0 -64905-6 0  9992,2 55423  69.9996 226.4523 0002998 270.2642  89.8174 14.98331768 56192,6950.187,96.107,574.136,569.969,0.0
55423.0,STARLINK-5068,PAYLOAD,2024-01-29 23:18:28,14.98331802,0.0002996,69.9996,225.274,270.2376,89.844,-3.0225e-07,-9.7e-07,0.0,0 STARLINK-5068,1 55423U 23014AJ  24029.97116136 -.00000097  00000-0 -30225-6 0  9996,2 55423  69.9996 225.2740 0002996 270.2376  89.8440 14.98331802 55321,6950.187,96.107,574.135,569.97,0.0
